NORAD_CAT_ID,OBJECT_NAME,OBJECT_TYPE,EPOCH,MEAN_MOTION,ECCENTRICITY,INCLINATION,RA_OF_ASC_NODE,ARG_OF_PERICENTER,MEAN_ANOMALY,BSTAR,MEAN_MOTION_DOT,MEAN_MOTION_DDOT,TLE_LINE0,TLE_LINE1,TLE_LINE2,SEMIMAJOR_AXIS,PERIOD,APOGEE,PERIGEE,DECAYED
56456.0,STARLINK-5995,PAYLOAD,2024-06-20 14:30:31,14.98333606,0.000319,69.9998,285.604,271.8142,88.2651,2.236e-05,1.74e-06,0.0,0 STARLINK-5995,1 56456U 23064J   24172.60453320  .00000174  00000-0  22360-4 0  9999,2 56456  69.9998 285.6040 0003190 271.8142  88.2651 14.98333606 61315,6950.182,96.107,574.264,569.83,0.0
56456.0,STARLINK-5995,PAYLOAD,2024-06-20 17:42:47,14.98336595,0.000318,69.9998,285.2674,271.8658,88.2137,5.3355e-05,5.44e-06,0.0,0 STARLINK-5995,1 56456U 23064J   24172.73805009  .00000544  00000-0  53355-4 0  9997,2 56456  69.9998 285.2674 0003180 271.8658  88.2137 14.98336595 61695,6950.172,96.107,574.248,569.827,0.0
56456.0,STARLINK-5995,PAYLOAD,2024-06-21 14:32:32,14.98333008,0.0003028,70.0003,283.0798,271.3039,88.7773,0.0001039,1.147e-05,0.0,0 STARLINK-5995,1 56456U 23064J   24173.60593086  .00001147  00000-0  10390-3 0  9994,2 56456  70.0003 283.0798 0003028 271.3039  88.7773 14.98333008 61469,6950.184,96.107,574.153,569.944,0.0
56456.0,STARLINK-5995,PAYLOAD,2024-06-21 17:44:48,14.98334145,0.0003023,70.0003,282.7432,271.3726,88.7087,0.00011269,1.252e-05,0.0,0 STARLINK-5995,1 56456U 23064J   24173.73944964  .00001252  00000-0  11269-3 0  9996,2 56456  70.0003 282.7432 0003023 271.3726  88.7087 14.98334145 61841,6950.18,96.107,574.146,569.944,0.0
56456.0,STARLINK-5995,PAYLOAD,2024-06-22 12:58:25,14.98329567,0.000295,70.0005,280.7232,264.3035,95.7788,3.5935e-05,3.36e-06,0.0,0 STARLINK-5995,1 56456U 23064J   24174.54057339  .00000336  00000-0  35935-4 0  9996,2 56456  70.0005 280.7232 0002950 264.3035  95.7788 14.98329567 61963,6950.194,96.107,574.11,570.009,0.0
56456.0,STARLINK-5995,PAYLOAD,2024-06-22 14:34:33,14.983291,0.0002955,70.0005,280.5549,264.3698,95.7124,2.8889e-05,2.52e-06,0.0,0 STARLINK-5995,1 56456U 23064J   24174.60733385  .00000252  00000-0  28889-4 0  9992,2 56456  70.0005 280.5549 0002955 264.3698  95.7124 14.98329100 61611,6950.196,96.107,574.114,570.007,0.0
56456.0,STARLINK-5995,PAYLOAD,2024-06-22 16:10:41,14.98329482,0.0002953,70.0005,280.3866,264.4758,95.6064,3.1649e-05,2.85e-06,0.0,0 STARLINK-5995,1 56456U 23064J   24174.67409353  .00000285  00000-0  31649-4 0  9998,2 56456  70.0005 280.3866 0002953 264.4758  95.6064 14.98329482 61623,6950.194,96.107,574.112,570.007,0.0
56456.0,STARLINK-5995,PAYLOAD,2024-06-23 13:00:26,14.98331368,0.0003044,70.0003,278.1984,262.7189,97.3624,1.5585e-05,9.3e-07,0.0,0 STARLINK-5995,1 56456U 23064J   24175.54197132  .00000093  00000-0  15585-4 0  9992,2 56456  70.0003 278.1984 0003044 262.7189  97.3624 14.98331368 62110,6950.189,96.107,574.169,569.938,0.0
56456.0,STARLINK-5995,PAYLOAD,2024-06-23 14:36:34,14.98332686,0.0003015,70.0003,278.03,261.8331,98.2486,3.1201e-05,2.79e-06,0.0,0 STARLINK-5995,1 56456U 23064J   24175.60872991  .00000279  00000-0  31201-4 0  9991,2 56456  70.0003 278.0300 0003015 261.8331  98.2486 14.98332686 61768,6950.185,96.107,574.145,569.954,0.0
56456.0,STARLINK-5995,PAYLOAD,2024-06-23 16:12:42,14.983333,0.0003012,70.0003,277.8617,262.0322,98.0496,3.7264e-05,3.52e-06,0.0,0 STARLINK-5995,1 56456U 23064J   24175.67548925  .00000352  00000-0  37264-4 0  9992,2 56456  70.0003 277.8617 0003012 262.0322  98.0496 14.98333300 61770,6950.183,96.107,574.141,569.954,0.0
56456.0,STARLINK-5995,PAYLOAD,2024-06-24 13:02:26,14.98333747,0.0003194,69.9999,275.6731,269.9097,90.1696,0.00010386,1.147e-05,0.0,0 STARLINK-5995,1 56456U 23064J   24176.54336588  .00001147  00000-0  10386-3 0  9997,2 56456  69.9999 275.6731 0003194 269.9097  90.1696 14.98333747 62265,6950.181,96.107,574.266,569.826,0.0
56456.0,STARLINK-5995,PAYLOAD,2024-06-24 14:38:34,14.98334307,0.0003187,69.9999,275.5048,269.8629,90.2164,0.00010913,1.209e-05,0.0,0 STARLINK-5995,1 56456U 23064J   24176.61012529  .00001209  00000-0  10913-3 0  9996,2 56456  69.9999 275.5048 0003187 269.8629  90.2164 14.98334307 61912,6950.18,96.107,574.26,569.83,0.0
56456.0,STARLINK-5995,PAYLOAD,2024-06-24 16:14:42,14.98335489,0.000315,70.0,275.3367,268.1918,91.888,0.00012348,1.381e-05,0.0,0 STARLINK-5995,1 56456U 23064J   24176.67688402  .00001381  00000-0  12348-3 0  9996,2 56456  70.0000 275.3367 0003150 268.1918  91.8880 14.98335489 61928,6950.176,96.107,574.23,569.852,0.0
56456.0,STARLINK-5995,PAYLOAD,2024-06-25 13:04:28,14.98329495,0.0003025,70.0004,273.149,267.0436,93.0377,2.4738e-05,2.02e-06,0.0,0 STARLINK-5995,1 56456U 23064J   24177.54476964  .00000202  00000-0  24738-4 0  9999,2 56456  70.0004 273.1490 0003025 267.0436  93.0377 14.98329495 62419,6950.194,96.107,574.162,569.957,0.0
56456.0,STARLINK-5995,PAYLOAD,2024-06-25 14:40:36,14.98329758,0.000299,70.0004,272.9808,265.257,94.8248,2.8104e-05,2.42e-06,0.0,0 STARLINK-5995,1 56456U 23064J   24177.61152926  .00000242  00000-0  28104-4 0  9991,2 56456  70.0004 272.9808 0002990 265.2570  94.8248 14.98329758 62067,6950.194,96.107,574.137,569.981,0.0
56456.0,STARLINK-5995,PAYLOAD,2024-06-25 16:16:44,14.98330207,0.0002987,70.0005,272.8126,265.2181,94.8637,3.2148e-05,2.91e-06,0.0,0 STARLINK-5995,1 56456U 23064J   24177.67828884  .00000291  00000-0  32148-4 0  9997,2 56456  70.0005 272.8126 0002987 265.2181  94.8637 14.98330207 62078,6950.192,96.107,574.133,569.981,0.0
56456.0,STARLINK-5995,PAYLOAD,2024-06-26 11:30:20,14.98339049,0.0003028,70.0005,270.7921,268.1477,91.9336,8.9071e-05,9.7e-06,0.0,0 STARLINK-5995,1 56456U 23064J   24178.47939923  .00000970  00000-0  89071-4 0  9994,2 56456  70.0005 270.7921 0003028 268.1477  91.9336 14.98339049 62555,6950.165,96.106,574.134,569.925,0.0
56456.0,STARLINK-5995,PAYLOAD,2024-06-27 13:08:29,14.98327265,0.000343,69.9997,268.1005,262.3802,97.6967,-5.682e-06,-1.61e-06,0.0,0 STARLINK-5995,1 56456U 23064J   24179.54756786 -.00000161  00000-0 -56820-5 0  9998,2 56456  69.9997 268.1005 0003430 262.3802  97.6967 14.98327265 62719,6950.201,96.107,574.45,569.682,0.0
56456.0,STARLINK-5995,PAYLOAD,2024-06-27 16:20:46,14.98326514,0.0003471,69.9995,267.7632,265.8633,94.2129,-1.8615e-05,-3.15e-06,0.0,0 STARLINK-5995,1 56456U 23064J   24179.68108899 -.00000315  00000-0 -18615-4 0  9999,2 56456  69.9995 267.7632 0003471 265.8633  94.2129 14.98326514 62374,6950.204,96.107,574.481,569.656,0.0
56456.0,STARLINK-5995,PAYLOAD,2024-06-28 13:10:30,14.9833885,0.0003456,69.9994,265.5733,270.4216,89.6547,9.2399e-05,1.01e-05,0.0,0 STARLINK-5995,1 56456U 23064J   24180.54895862  .00001010  00000-0  92399-4 0  9991,2 56456  69.9994 265.5733 0003456 270.4216  89.6547 14.98338850 62865,6950.166,96.106,574.433,569.629,0.0
56456.0,STARLINK-5995,PAYLOAD,2024-06-28 14:46:37,14.98343001,0.0003371,69.9995,265.405,273.0904,86.987,0.00013557,1.525e-05,0.0,0 STARLINK-5995,1 56456U 23064J   24180.61571482  .00001525  00000-0  13557-3 0  9997,2 56456  69.9995 265.4050 0003371 273.0904  86.9870 14.98343001 62511,6950.153,96.106,574.361,569.675,0.0
56456.0,STARLINK-5995,PAYLOAD,2024-06-29 05:11:51,14.9832634,0.0002666,70.0008,263.8929,264.68,95.4055,0.0001427,1.61e-05,0.0,0 STARLINK-5995,1 56456U 23064J   24181.21656539  .00001610  00000-0  14270-3 0  9999,2 56456  70.0008 263.8929 0002666 264.6800  95.4055 14.98326340 62969,6950.204,96.107,573.922,570.216,0.0
56456.0,STARLINK-5995,PAYLOAD,2024-06-29 13:12:32,14.98318557,0.0002873,70.0005,263.0504,264.6602,95.4229,6.0431e-05,6.28e-06,0.0,0 STARLINK-5995,1 56456U 23064J   24181.55037265  .00000628  00000-0  60431-4 0  9994,2 56456  70.0005 263.0504 0002873 264.6602  95.4229 14.98318557 63018,6950.228,96.108,574.09,570.096,0.0
56456.0,STARLINK-5995,PAYLOAD,2024-06-29 14:48:40,14.98319697,0.0002888,70.0004,262.8821,267.5473,92.5356,3.8343e-05,3.64e-06,0.0,0 STARLINK-5995,1 56456U 23064J   24181.61713301  .00000364  00000-0  38343-4 0  9997,2 56456  70.0004 262.8821 0002888 267.5473  92.5356 14.98319697 62665,6950.225,96.108,574.097,570.083,0.0
56456.0,STARLINK-5995,PAYLOAD,2024-06-30 11:38:24,14.983337,0.0003166,69.9993,260.6922,271.0075,89.0721,-3.3656e-05,-4.95e-06,0.0,0 STARLINK-5995,1 56456U 23064J   24182.48500767 -.00000495  00000-0 -33656-4 0  9992,2 56456  69.9993 260.6922 0003166 271.0075  89.0721 14.98333700 63158,6950.181,96.107,574.247,569.846,0.0
56456.0,STARLINK-5995,PAYLOAD,2024-06-30 14:50:40,14.98332555,0.0003185,69.9993,260.3555,270.7829,89.2965,-3.9429e-05,-5.63e-06,0.0,0 STARLINK-5995,1 56456U 23064J   24182.61852848 -.00000563  00000-0 -39429-4 0  9997,2 56456  69.9993 260.3555 0003185 270.7829  89.2965 14.98332555 62812,6950.185,96.107,574.264,569.836,0.0
56456.0,STARLINK-5995,PAYLOAD,2024-07-01 13:16:33,14.98331217,0.0003176,69.9992,257.9987,269.6102,90.4693,0.0001857,2.123e-05,0.0,0 STARLINK-5995,1 56456U 23064J   24183.55316434  .00002123  00000-0  18570-3 0  9992,2 56456  69.9992 257.9987 0003176 269.6102  90.4693 14.98331217 63315,6950.189,96.107,574.262,569.847,0.0
56456.0,STARLINK-5995,PAYLOAD,2024-07-01 14:52:41,14.98332708,0.0003189,69.9992,257.8307,269.0971,90.9822,0.0001958,2.244e-05,0.0,0 STARLINK-5995,1 56456U 23064J   24183.61992315  .00002244  00000-0  19580-3 0  9993,2 56456  69.9992 257.8307 0003189 269.0971  90.9822 14.98332708 62967,6950.185,96.107,574.266,569.833,0.0
56456.0,STARLINK-5995,PAYLOAD,2024-07-02 05:17:54,14.9832288,0.0003418,69.9991,256.3146,269.0153,91.0614,0.00012913,1.448e-05,0.0,0 STARLINK-5995,1 56456U 23064J   24184.22077065  .00001448  00000-0  12913-3 0  9995,2 56456  69.9991 256.3146 0003418 269.0153  91.0614 14.98322880 63410,6950.215,96.107,574.455,569.704,0.0
56456.0,STARLINK-5995,PAYLOAD,2024-07-02 13:18:34,14.98331561,0.0003207,69.999,255.4731,268.7198,91.3594,9.2568e-05,1.012e-05,0.0,0 STARLINK-5995,1 56456U 23064J   24184.55456663  .00001012  00000-0  92568-4 0  9998,2 56456  69.9990 255.4731 0003207 268.7198  91.3594 14.98331561 63461,6950.188,96.107,574.282,569.824,0.0
